TIANMU-1 20             
1 58661U 23208B   26157.29117536  .00010339  00000+0  33062-3 0  9998
2 58661  97.4436 274.1617 0007019  15.0601 345.0849 15.32599258135752
TIANMU-1 21             
1 58662U 23208C   26157.23062249  .00012680  00000+0  37682-3 0  9996
2 58662  97.4495 276.7343 0006859   7.8846 352.2504 15.34879891135881
TIANMU-1 22             
1 58663U 23208D   26157.28839466  .00009666  00000+0  32612-3 0  9993
2 58663  97.4490 273.4800 0004225  39.9888 320.1663 15.30903946135667
TIANMU-1 15             
1 58700U 24004A   26157.28597219  .00007605  00000+0  29031-3 0  9999
2 58700  97.4674 343.4751 0007745  38.5430 321.6360 15.26909885134116
TIANMU-1 16             
1 58701U 24004B   26157.27324546  .00007764  00000+0  29884-3 0  9992
2 58701  97.4620 342.7116 0006848  43.1654 317.0120 15.26635223134113
TIANMU-1 17             
1 58702U 24004C   26157.32423995  .00008101  00000+0  31168-3 0  9991
2 58702  97.4648 343.2434 0006509  48.4045 311.7751 15.26636472134117
TIANMU-1 18             
1 58703U 24004D   26157.30246330  .00006839  00000+0  26162-3 0  9990
2 58703  97.4665 343.4702 0005001  47.6121 312.5540 15.26894322134114
INSAT-3DS               
1 58990U 24033A   26157.09350223 -.00000143  00000+0  00000+0 0  9995
2 58990   0.0105 295.9880 0001399 136.5879 297.6693  1.00273709 46956
METEOR-M2 4             
1 59051U 24039A   26157.28041282  .00000031  00000+0  33375-4 0  9994
2 59051  98.7006 116.7159 0006639 192.6144 167.4868 14.22428468117711
GOES 19                 
1 60133U 24119A   26156.97607111 -.00000235  00000+0  00000+0 0  9991
2 60133   0.0383 144.9083 0000659 350.7636  34.9263  1.00270769  6856
MTG-S1                  
1 64723U 25143A   26157.13285837 -.00000019  00000+0  00000+0 0  9994
2 64723   0.6130 336.4722 0001126  35.3543 287.0823  1.00271635  3305
METOP-SGA1              
1 65159U 25172A   26156.10248233  .00000054  00000+0  44615-4 0  9998
2 65159  98.6647 216.0502 0000977  86.3817 273.7472 14.21507730 42075
FENGYUN 3H              
1 65815U 25219A   26156.83692041  .00000076  00000+0  55999-4 0  9990
2 65815  98.6765  97.8270 0001630  86.2171 273.9192 14.19918467 35771
