OBJECT_NAME,OBJECT_ID,EPOCH,MEAN_MOTION,ECCENTRICITY,INCLINATION,RA_OF_ASC_NODE,ARG_OF_PERICENTER,MEAN_ANOMALY,EPHEMERIS_TYPE,CLASSIFICATION_TYPE,NORAD_CAT_ID,ELEMENT_SET_NO,REV_AT_EPOCH,BSTAR,MEAN_MOTION_DOT,MEAN_MOTION_DDOT
TIANMU-1 20,2023-208B,2026-06-06T06:59:17.551104,15.32599258,.00070191,97.4436,274.1617,15.0601,345.0849,0,U,58661,999,13575,.330619E-3,.10339E-3,0
TIANMU-1 21,2023-208C,2026-06-06T05:32:05.783136,15.34879891,.00068596,97.4495,276.7343,7.8846,352.2504,0,U,58662,999,13588,.3768206E-3,.1268E-3,0
TIANMU-1 22,2023-208D,2026-06-06T06:55:17.298624,15.30903946,.00042257,97.4490,273.4800,39.9888,320.1663,0,U,58663,999,13566,.32612341E-3,.9666E-4,0
TIANMU-1 15,2024-004A,2026-06-06T06:51:47.997216,15.26909885,.00077458,97.4674,343.4751,38.5430,321.6360,0,U,58700,999,13411,.2903081E-3,.7605E-4,0
TIANMU-1 16,2024-004B,2026-06-06T06:33:28.407744,15.26635223,.00068484,97.4620,342.7116,43.1654,317.0120,0,U,58701,999,13411,.29884158E-3,.7764E-4,0
TIANMU-1 17,2024-004C,2026-06-06T07:46:54.331680,15.26636472,.00065099,97.4648,343.2434,48.4045,311.7751,0,U,58702,999,13411,.31167855E-3,.8101E-4,0
TIANMU-1 18,2024-004D,2026-06-06T07:15:32.829120,15.26894322,.00050013,97.4665,343.4702,47.6121,312.5540,0,U,58703,999,13411,.26162014E-3,.6839E-4,0
INSAT-3DS,2024-033A,2026-06-06T02:14:38.592672,1.00273709,.00013995,0.0105,295.9880,136.5879,297.6693,0,U,58990,999,4695,0,-.143E-5,0
METEOR-M2 4,2024-039A,2026-06-06T06:43:47.667648,14.22428468,.00066391,98.7006,116.7159,192.6144,167.4868,0,U,59051,999,11771,.33375471E-4,.31E-6,0
GOES 19,2024-119A,2026-06-05T23:25:32.543904,1.00270769,.00006598,0.0383,144.9083,350.7636,34.9263,0,U,60133,999,685,0,-.235E-5,0
MTG-S1,2025-143A,2026-06-06T03:11:18.963168,1.00271635,.00011269,0.6130,336.4722,35.3543,287.0823,0,U,64723,999,330,0,-.19E-6,0
METOP-SGA1,2025-172A,2026-06-05T02:27:34.473312,14.21507730,.0000977,98.6647,216.0502,86.3817,273.7472,0,U,65159,999,4207,.44615E-4,.54E-6,0
FENGYUN 3H,2025-219A,2026-06-05T20:05:09.923424,14.19918467,.000163,98.6765,97.8270,86.2171,273.9192,0,U,65815,999,3577,.55999E-4,.76E-6,0
